NORAD_CAT_ID,OBJECT_NAME,OBJECT_TYPE,EPOCH,MEAN_MOTION,ECCENTRICITY,INCLINATION,RA_OF_ASC_NODE,ARG_OF_PERICENTER,MEAN_ANOMALY,BSTAR,MEAN_MOTION_DOT,MEAN_MOTION_DDOT,TLE_LINE0,TLE_LINE1,TLE_LINE2,SEMIMAJOR_AXIS,PERIOD,APOGEE,PERIGEE,DECAYED
53965.0,STARLINK-4578,PAYLOAD,2022-12-02 20:00:01,15.08849123,0.0002052,53.216,179.1778,50.8373,168.0047,-0.00082972,-0.00013473,0.0,0 STARLINK-4578,1 53965U 22125B   22336.83334491 -.00013473  00000-0 -82972-3 0  9992,2 53965  53.2160 179.1778 0002052  50.8373 168.0047 15.08849123  9301,6917.853,95.437,541.137,538.298,0.0
53965.0,STARLINK-4578,PAYLOAD,2022-12-02 22:00:00,15.08836771,0.0002098,53.2161,178.8039,50.2291,261.5162,0.00088184,0.00013773,0.0,0 STARLINK-4578,1 53965U 22125B   22336.91667824  .00013773  00000-0  88184-3 0  9992,2 53965  53.2161 178.8039 0002098  50.2291 261.5162 15.08836771  1305,6917.89,95.438,541.207,538.304,0.0
53965.0,STARLINK-4578,PAYLOAD,2022-12-03 12:00:00,15.08849149,0.0001842,53.2157,176.1834,55.6789,186.373,-0.0006692,-0.00010925,0.0,0 STARLINK-4578,1 53965U 22125B   22337.50001157 -.00010925  00000-0 -66920-3 0  9991,2 53965  53.2157 176.1834 0001842  55.6789 186.3730 15.08849149  9408,6917.852,95.437,540.992,538.443,0.0
53965.0,STARLINK-4578,PAYLOAD,2022-12-03 14:00:01,15.08856197,0.0001847,53.2159,175.8096,56.0409,278.9061,-0.0020766,-0.000332,0.0,0 STARLINK-4578,1 53965U 22125B   22337.58334491 -.00033200  00000-0 -20766-2 0  9997,2 53965  53.2159 175.8096 0001847  56.0409 278.9061 15.08856197  1302,6917.831,95.437,540.974,538.418,0.0
53965.0,STARLINK-4578,PAYLOAD,2022-12-03 22:00:00,15.08814339,0.0002001,53.2156,174.3149,49.8088,296.7417,0.0010959,0.00017184,0.0,0 STARLINK-4578,1 53965U 22125B   22337.91667824  .00017184  00000-0  10959-2 0  9997,2 53965  53.2156 174.3149 0002001  49.8088 296.7417 15.08814339  1303,6917.959,95.439,541.2080000000002,538.44,0.0
53965.0,STARLINK-4578,PAYLOAD,2022-12-04 14:00:01,15.088358800000002,0.0001839,53.2152,171.3206,56.9859,312.7135,-1.7519e-05,-5.67e-06,0.0,0 STARLINK-4578,1 53965U 22125B   22338.58334491 -.00000567  00000-0 -17519-4 0  9992,2 53965  53.2152 171.3206 0001839  56.9859 312.7135 15.08835880  1303,6917.893,95.438,541.03,538.486,0.0
53965.0,STARLINK-4578,PAYLOAD,2022-12-04 20:00:01,15.088302800000005,0.0001995,53.2148,170.1997,52.2024,236.1919,-0.00044376,-7.342e-05,0.0,0 STARLINK-4578,1 53965U 22125B   22338.83334491 -.00007342  00000-0 -44376-3 0  9998,2 53965  53.2148 170.1997 0001995  52.2024 236.1919 15.08830280  9607,6917.91,95.438,541.155,538.395,0.0
53965.0,STARLINK-4578,PAYLOAD,2022-12-04 22:00:00,15.08818042,0.0002014,53.2149,169.8259,51.6738,329.6203,0.0015266,0.00024077,0.0,0 STARLINK-4578,1 53965U 22125B   22338.91667824  .00024077  00000-0  15266-2 0  9993,2 53965  53.2149 169.8259 0002014  51.6738 329.6203 15.08818042  1307,6917.948,95.439,541.206,538.419,0.0
53965.0,STARLINK-4578,PAYLOAD,2022-12-05 12:00:00,15.08829111,0.0001872,53.2144,167.2051,58.438,253.1327,0.0020104,0.00031843,0.0,0 STARLINK-4578,1 53965U 22125B   22339.50001157  .00031843  00000-0  20104-2 0  9996,2 53965  53.2144 167.2051 0001872  58.4380 253.1327 15.08829111  9713,6917.9140000000025,95.438,541.0740000000002,538.484,0.0
53965.0,STARLINK-4578,PAYLOAD,2022-12-05 14:00:01,15.088468,0.0001895,53.2144,166.8315,58.3791,346.1429,-0.0003951,-6.572e-05,0.0,0 STARLINK-4578,1 53965U 22125B   22339.58335648 -.00006572  00000-0 -39510-3 0  9994,2 53965  53.2144 166.8315 0001895  58.3791 346.1429 15.08846800  1308,6917.86,95.437,541.036,538.414,0.0
53965.0,STARLINK-4578,PAYLOAD,2022-12-05 16:00:00,15.08855086,0.0001936,53.2143,166.4579,56.7582,80.5993,-0.0018796,-0.0003009,0.0,0 STARLINK-4578,1 53965U 22125B   22339.66667824 -.00030090  00000-0 -18796-2 0  9991,2 53965  53.2143 166.4579 0001936  56.7582  80.5993 15.08855086  9737,6917.834,95.437,541.039,538.36,0.0
53965.0,STARLINK-4578,PAYLOAD,2022-12-05 20:09:48,15.08834661,0.0002088,53.217,165.6786,52.476000000000006,307.6421,8.035199999999999e-05,9.91e-06,0.0,0 STARLINK-4578,1 53965U 22125B   22339.84014422  .00000991  00000-0  80352-4 0  9995,2 53965  53.2170 165.6786 0002088  52.4760 307.6421 15.08834661  9698,6917.897,95.438,541.206,538.317,0.0
53965.0,STARLINK-4578,PAYLOAD,2022-12-05 21:45:11,15.08835023,0.0002099,53.2169,165.3812,52.2768,307.8414,8.2087e-05,1.018e-05,0.0,0 STARLINK-4578,1 53965U 22125B   22339.90638423  .00001018  00000-0  82087-4 0  9993,2 53965  53.2169 165.3812 0002099  52.2768 307.8414 15.08835023  9777,6917.896,95.438,541.2130000000002,538.309,0.0
53965.0,STARLINK-4578,PAYLOAD,2022-12-06 05:42:07,15.08836384,0.0001955,53.2167,163.8945,53.6175,306.4997,0.00010639,1.405e-05,0.0,0 STARLINK-4578,1 53965U 22125B   22340.23758325  .00001405  00000-0  10639-3 0  9998,2 53965  53.2167 163.8945 0001955  53.6175 306.4997 15.08836384  9752,6917.891,95.438,541.109,538.404,0.0
53965.0,STARLINK-4578,PAYLOAD,2022-12-06 20:00:35,15.08841497,0.0002017,53.2168,161.2181,54.7921,305.326,9.593e-05,1.239e-05,0.0,0 STARLINK-4578,1 53965U 22125B   22340.83374101  .00001239  00000-0  95930-4 0  9993,2 53965  53.2168 161.2181 0002017  54.7921 305.3260 15.08841497  9840,6917.876,95.437,541.136,538.345,0.0
53965.0,STARLINK-4578,PAYLOAD,2022-12-06 23:11:21,15.08842715,0.000202,53.2168,160.6234,54.8797,305.2384,0.00010284,1.349e-05,0.0,0 STARLINK-4578,1 53965U 22125B   22340.96621998  .00001349  00000-0  10284-3 0  9996,2 53965  53.2168 160.6234 0002020  54.8797 305.2384 15.08842715  9938,6917.871999999999,95.437,541.135,538.34,0.0
53965.0,STARLINK-4578,PAYLOAD,2022-12-07 18:15:59,15.08834439,0.0002064,53.2169,157.0551,55.8483,304.2705,-2.493e-05,-6.85e-06,0.0,0 STARLINK-4578,1 53965U 22125B   22341.76110992 -.00000685  00000-0 -24930-4 0  9990,2 53965  53.2169 157.0551 0002064  55.8483 304.2705 15.08834439 10057,6917.897,95.438,541.19,538.335,0.0
53965.0,STARLINK-4578,PAYLOAD,2022-12-08 11:45:14,15.08839866,0.0002171,53.2169,153.7843,54.0315,306.0878,-4.9442000000000033e-08,-2.89e-06,0.0,0 STARLINK-4578,1 53965U 22125B   22342.48974694 -.00000289  00000-0 -49442-7 0  9995,2 53965  53.2169 153.7843 0002171  54.0315 306.0878 15.08839866 10092,6917.880999999999,95.438,541.248,538.244,0.0
53965.0,STARLINK-4578,PAYLOAD,2022-12-08 19:42:09,15.08843042,0.0002115,53.2164,152.2996,52.6898,307.4287,-4.6947e-06,-3.63e-06,0.0,0 STARLINK-4578,1 53965U 22125B   22342.82094438 -.00000363  00000-0 -46947-5 0  9990,2 53965  53.2164 152.2996 0002115  52.6898 307.4287 15.08843042 10144,6917.871,95.437,541.1990000000002,538.273,0.0
53965.0,STARLINK-4578,PAYLOAD,2022-12-10 11:26:48,15.08826662,0.0001739,53.2179,144.8693,17.8314,342.2739,0.00011957,1.615e-05,0.0,0 STARLINK-4578,1 53965U 22125B   22344.47695246  .00001615  00000-0  11957-3 0  9997,2 53965  53.2179 144.8693 0001739  17.8314 342.2739 15.08826662 10461,6917.920999999999,95.438,540.989,538.5830000000002,0.0
53965.0,STARLINK-4578,PAYLOAD,2022-12-10 19:23:43,15.08841394,0.000193,53.2166,143.3772,50.0751,310.0411,5.8145e-05,6.37e-06,0.0,0 STARLINK-4578,1 53965U 22125B   22344.80814800  .00000637  00000-0  58145-4 0  9997,2 53965  53.2166 143.3772 0001930  50.0751 310.0411 15.08841394 10443,6917.876,95.437,541.076,538.406,0.0
53965.0,STARLINK-4578,PAYLOAD,2022-12-11 09:42:11,15.08836399,0.0001695,53.2164,140.7002,38.0121,322.0991,0.0001614,2.281e-05,0.0,0 STARLINK-4578,1 53965U 22125B   22345.40430373  .00002281  00000-0  16140-3 0  9998,2 53965  53.2164 140.7002 0001695  38.0121 322.0991 15.08836399 10538,6917.891,95.438,540.929,538.5840000000002,0.0
53965.0,STARLINK-4578,PAYLOAD,2022-12-11 16:03:45,15.08831118,0.0001944,53.217,139.51,54.34,305.7773,4.5043e-05,4.29e-06,0.0,0 STARLINK-4578,1 53965U 22125B   22345.66927208  .00000429  00000-0  45043-4 0  9991,2 53965  53.2170 139.5100 0001944  54.3400 305.7773 15.08831118 10640,6917.908,95.438,541.117,538.428,0.0
53965.0,STARLINK-4578,PAYLOAD,2022-12-11 19:14:31,15.08832327,0.0001956,53.2172,138.9149,55.1812,304.9364,5.389e-05,5.69e-06,0.0,0 STARLINK-4578,1 53965U 22125B   22345.80175188  .00000569  00000-0  53890-4 0  9993,2 53965  53.2172 138.9149 0001956  55.1812 304.9364 15.08832327 10591,6917.904,95.438,541.122,538.4159999999998,0.0
53965.0,STARLINK-4578,PAYLOAD,2022-12-11 20:49:54,15.08833252,0.0001956,53.2178,138.6168,50.4206,309.6959,5.5947e-05,6.02e-06,0.0,0 STARLINK-4578,1 53965U 22125B   22345.86799173  .00000602  00000-0  55947-4 0  9998,2 53965  53.2178 138.6168 0001956  50.4206 309.6959 15.08833252 10602,6917.901,95.438,541.119,538.413,0.0
53965.0,STARLINK-4578,PAYLOAD,2022-12-12 19:05:17,15.0884157,0.0002024,53.2177,134.4535,50.2512,309.8658,0.0001377,1.904e-05,0.0,0 STARLINK-4578,1 53965U 22125B   22346.79534428  .00001904  00000-0  13770-3 0  9994,2 53965  53.2177 134.4535 0002024  50.2512 309.8658 15.08841570 10743,6917.876,95.437,541.141,538.34,0.0
53965.0,STARLINK-4578,PAYLOAD,2022-12-12 22:16:04,15.08840078,0.0003007,53.2178,133.8612,51.0525,309.0734,4.2846e-05,3.93e-06,0.0,0 STARLINK-4578,1 53965U 22125B   22346.92783213  .00000393  00000-0  42846-4 0  9995,2 53965  53.2178 133.8612 0003007  51.0525 309.0734 15.08840078 10837,6917.88,95.438,541.825,537.665,0.0
53965.0,STARLINK-4578,PAYLOAD,2022-12-13 10:59:09,15.08836799,0.000206,53.2167,131.4822,49.2644,310.8527,8.418700000000001e-05,1.052e-05,0.0,0 STARLINK-4578,1 53965U 22125B   22347.45774723  .00001052  00000-0  84187-4 0  9997,2 53965  53.2167 131.4822 0002060  49.2644 310.8527 15.08836799 10847,6917.89,95.438,541.18,538.33,0.0
53965.0,STARLINK-4578,PAYLOAD,2022-12-14 02:53:00,15.08841874,0.0001879,53.2171,128.5091,46.9768,313.1381,4.9164e-05,4.94e-06,0.0,0 STARLINK-4578,1 53965U 22125B   22348.12014480  .00000494  00000-0  49164-4 0  9994,2 53965  53.2171 128.5091 0001879  46.9768 313.1381 15.08841874 11019,6917.875,95.437,541.04,538.44,0.0
